     3.00           N: GNSS NAV DATA    E: Galileo          RINEX VERSION / TYPE
PREC2NAV                                20121215 063333 UTC PGM / RUN BY / DATE 
SOURCE: data/tum%W%D.sp3                                    COMMENT             
                                                            END OF HEADER       
E12 2012 11 29 14  0  0  .617430051480E-03  .850972256410E-10  .000000000000E+00
      .800000000000E+01  .283249924030E+02  .338702229778E-08 -.291855687052E+01
      .132307178581E-05  .668266283230E-04  .873519200513E-05  .544060221971E+04
      .396000000000E+06 -.190883559700E-07  .944759526371E+00  .287504055395E-07
      .956459449651E+00  .152193423440E+03 -.277295670421E+01 -.549306590698E-08
      .695777658056E-09  .000000000000E+00  .171600000000E+04  .000000000000E+00
      .240000000000E+01  .000000000000E+00  .000000000000E+00  .000000000000E+00
      .399600000000E+06  .000000000000E+00
E11 2012 11 29 16  0  0 -.162830264320E-03  .825044384615E-10  .000000000000E+00
      .900000000000E+01  .285283080524E+02  .338140877382E-08 -.736668832339E+00
      .129847659112E-05  .109808631863E-03  .891415927591E-05  .544060621813E+04
      .403200000000E+06 -.104268630301E-07  .944745657905E+00  .334404625925E-07
      .956452585712E+00  .150576197714E+03  .151675876468E+01 -.549525415906E-08
      .739787771423E-09  .000000000000E+00  .171600000000E+04  .000000000000E+00
      .240000000000E+01  .000000000000E+00  .000000000000E+00  .000000000000E+00
      .406800000000E+06  .000000000000E+00
E12 2012 11 29 16  0  0  .618042514920E-03  .850509205128E-10  .000000000000E+00
      .900000000000E+01  .283179076718E+02  .336811796809E-08 -.202879012121E+01
      .123782739968E-05  .668604816858E-04  .858628253346E-05  .544060192002E+04
      .403200000000E+06 -.243445639710E-07  .944719901643E+00  .129947254769E-07
      .956464447867E+00  .154326039702E+03 -.277009184615E+01 -.549976243819E-08
      .696264517185E-09  .000000000000E+00  .171600000000E+04  .000000000000E+00
      .240000000000E+01  .000000000000E+00  .000000000000E+00  .000000000000E+00
      .406800000000E+06  .000000000000E+00
E11 2012 11 29 18  0  0 -.162236187960E-03  .825059153846E-10  .000000000000E+00
      .100000000000E+02  .274032283131E+02  .332197459593E-08  .155421876638E+00
      .110070350836E-05  .109427962654E-03  .860516789534E-05  .544060542608E+04
      .410400000000E+06 -.353196225430E-07  .944706293164E+00  .108268179542E-07
      .956457866544E+00  .153126019907E+03  .151729761121E+01 -.548656497346E-08
      .714624655938E-09  .000000000000E+00  .171600000000E+04  .000000000000E+00
      .240000000000E+01  .000000000000E+00  .000000000000E+00  .000000000000E+00
      .414000000000E+06  .000000000000E+00
E12 2012 11 29 18  0  0  .618654632520E-03  .849968948718E-10  .000000000000E+00
      .100000000000E+02  .222157373412E+02  .331133712038E-08 -.112341532064E+01
      .104052682093E-05  .670575106684E-04  .860665847503E-05  .544060369203E+04
      .410400000000E+06 -.249835935327E-07  .944680296289E+00  .367942183558E-08
      .956469457232E+00  .151767762320E+03 -.278283525686E+01 -.549713681872E-08
      .695653554764E-09  .000000000000E+00  .171600000000E+04  .000000000000E+00
      .240000000000E+01  .000000000000E+00  .000000000000E+00  .000000000000E+00
      .414000000000E+06  .000000000000E+00
E11 2012 11 29 20  0  0 -.161642298040E-03  .824736256410E-10  .000000000000E+00
      .110000000000E+02  .189966802317E+02  .323895989481E-08  .104079644370E+01
      .891626075831E-06  .110299514037E-03  .857488825243E-05  .544060785174E+04
      .417600000000E+06 -.195168881779E-07  .944666836574E+00 -.857941036852E-08
      .956462932233E+00  .151522377972E+03  .152455202649E+01 -.548792302256E-08
      .702452189316E-09  .000000000000E+00  .171600000000E+04  .000000000000E+00
      .240000000000E+01  .000000000000E+00  .000000000000E+00  .000000000000E+00
      .421200000000E+06  .000000000000E+00
E12 2012 11 29 20  0  0  .619266755760E-03  .850503128205E-10  .000000000000E+00
      .110000000000E+02  .152870705553E+02  .322772768211E-08 -.218430795707E+00
      .793313451227E-06  .677683100161E-04  .851070588623E-05  .544060592064E+04
      .417600000000E+06  .382688459578E-08  .944640759346E+00 -.219074148810E-07
      .956474728721E+00  .156044502101E+03 -.279519037491E+01 -.545519286339E-08
      .704569288171E-09  .000000000000E+00  .171600000000E+04  .000000000000E+00
      .240000000000E+01  .000000000000E+00  .000000000000E+00  .000000000000E+00
      .421200000000E+06  .000000000000E+00
E11 2012 11 29 22  0  0 -.161048422800E-03  .824991025641E-10  .000000000000E+00
      .120000000000E+02  .144603456867E+02  .316272008591E-08  .193073195534E+01
      .739673166962E-06  .110608409025E-03  .866483213796E-05  .544060851331E+04
      .424800000000E+06  .256102673553E-07  .944627444482E+00 -.146633333365E-07
      .956468260486E+00  .152742601116E+03 -.475594169208E+01 -.544059522699E-08
      .704148563466E-09  .000000000000E+00  .171600000000E+04  .000000000000E+00
      .240000000000E+01  .000000000000E+00  .000000000000E+00  .000000000000E+00
      .428400000000E+06  .000000000000E+00
E12 2012 11 29 22  0  0  .619879323520E-03  .851020615385E-10  .000000000000E+00
      .120000000000E+02  .715247006308E+01  .323316545291E-08  .678128360109E+00
      .364728446065E-06  .664994473199E-04  .874204874825E-05  .544060323408E+04
      .424800000000E+06  .145840991446E-07  .944601607534E+00 -.270584196680E-08
      .956479853879E+00  .151888889304E+03 -.279912008792E+01 -.543955420519E-08
      .700876515826E-09  .000000000000E+00  .171600000000E+04  .000000000000E+00
      .240000000000E+01  .000000000000E+00  .000000000000E+00  .000000000000E+00
      .428400000000E+06  .000000000000E+00
E11 2012 11 30  0  0  0 -.160454370720E-03  .825096846154E-10  .000000000000E+00
      .130000000000E+02  .638767238306E+01  .316348344535E-08  .283184953259E+01
      .369574122752E-06  .111324022284E-03  .882189653696E-05  .544060609050E+04
      .432000000000E+06 -.666279745353E-07  .944588863363E+00 -.249331371807E-07
      .956473452365E+00  .149643079526E+03 -.476443164236E+01 -.539172819637E-08
      .635435843196E-09  .000000000000E+00  .171600000000E+04  .000000000000E+00
      .240000000000E+01  .000000000000E+00  .000000000000E+00  .000000000000E+00
      .435600000000E+06  .000000000000E+00
E12 2012 11 30  0  0  0  .620492311360E-03  .851831205128E-10  .000000000000E+00
      .130000000000E+02  .650327462690E+01  .322706488346E-08  .154407611381E+01
      .320335664168E-06  .671174628496E-04  .929391704497E-05  .544060713538E+04
      .432000000000E+06  .338456981104E-06  .944563884652E+00 -.199838142683E-06
      .956484606340E+00  .138510451978E+03 -.277243941276E+01 -.554011537632E-08
      .477318691516E-09  .000000000000E+00  .171600000000E+04  .000000000000E+00
      .240000000000E+01  .000000000000E+00  .000000000000E+00  .000000000000E+00
      .435600000000E+06  .000000000000E+00
